*******************************************************************************
JPL/HORIZONS                 176 Iduna (A877 TB)           2020-Jun-20 08:35:04
Rec #:     176 (+COV) Soln.date: 2020-Feb-22_15:19:36   # obs: 3024 (1877-2020)
 
IAU76/J2000 helio. ecliptic osc. elements (au, days, deg., period=Julian yrs):
 
  EPOCH=  2455091.5 ! 2009-Sep-17.00 (TDB)         Residual RMS= .28208
   EC= .1655480994072951   QR= 2.661300704034594   TP= 2454559.2088774773
   OM= 200.7046587662569   W=  186.9198100539128   IN= 22.58075638010772
   A= 3.18927993590079     MA= 92.11160208548698   ADIST= 3.717259167766986
   PER= 5.6957             N= .173047409           ANGMOM= .030296574
   DAN= 3.71189            DDN= 2.66406            L= 27.0985735
   B= -2.6515984           MOID= 1.66551006        TP= 2008-Apr-02.7088774773
 
Asteroid physical parameters (km, seconds, rotational period in hours):
   GM= n.a.                RAD= 53.488             ROTPER= 11.2877
   H= 8.2                  G= .150                 B-V= n.a.
                           ALBEDO= .065            STYP= Ch
 
ASTEROID comments: 
1: soln ref.= JPL#47, OCC=0
2: source=ORB
*******************************************************************************
 
 
*******************************************************************************
Ephemeris / WWW_USER Sat Jun 20 08:35:04 2020 Pasadena, USA      / Horizons
*******************************************************************************
Target body name: 176 Iduna (A877 TB)             {source: JPL#47}
Center body name: Solar System Barycenter (0)     {source: DE431}
Center-site name: BODY CENTER
*******************************************************************************
Start time      : A.D. 1969-Jun-28 00:00:00.0000 TDB
Stop  time      : A.D. 2071-May-04 00:00:00.0000 TDB
Step-size       : 7200 minutes
*******************************************************************************
Center geodetic : 0.00000000,0.00000000,0.0000000 {E-lon(deg),Lat(deg),Alt(km)}
Center cylindric: 0.00000000,0.00000000,0.0000000 {E-lon(deg),Dxy(km),Dz(km)}
Center radii    : (undefined)                                                  
Small perturbers: Yes                             {source: SB431-N16}
Output units    : AU-D
Output type     : GEOMETRIC cartesian states
Output format   : 2 (position and velocity)
Reference frame : Ecliptic of J2000.0
*******************************************************************************
Initial IAU76/J2000 heliocentric ecliptic osculating elements (au, days, deg.):
  EPOCH=  2455091.5 ! 2009-Sep-17.00 (TDB)         Residual RMS= .28208        
   EC= .1655480994072951   QR= 2.661300704034594   TP= 2454559.2088774773      
   OM= 200.7046587662569   W=  186.9198100539128   IN= 22.58075638010772       
  Equivalent ICRF heliocentric equatorial cartesian coordinates (au, au/d):
   X=-2.377163125844463E+00  Y= 2.267228561969740E+00  Z=-2.395515870446624E-01
  VX=-7.335566587496379E-03 VY=-5.621364210253393E-03 VZ=-1.220170480564319E-03
Asteroid physical parameters (km, seconds, rotational period in hours):        
   GM= n.a.                RAD= 53.488             ROTPER= 11.2877             
   H= 8.2                  G= .150                 B-V= n.a.                   
                           ALBEDO= .065            STYP= Ch                    
*******************************************************************************
            JDTDB,            Calendar Date (TDB),        delta-T,                      X,                      Y,                      Z,                     VX,                     VY,                     VZ,
******************************************************************************************************************************************************************************************************************
$$SOE
2467560.500000000, A.D. 2043-Nov-07 00:00:00.0000,      69.182566, -2.735478329623830E+00,  1.642568735033990E+00, -1.039195811267932E+00, -6.338091320632614E-03, -6.367962570042745E-03,  1.596942943381246E-03,
2467565.500000000, A.D. 2043-Nov-12 00:00:00.0000,      69.182648, -2.766899976651035E+00,  1.610569688494174E+00, -1.031109651020850E+00, -6.230487580804381E-03, -6.431374078463168E-03,  1.637421570210696E-03,
2467570.500000000, A.D. 2043-Nov-17 00:00:00.0000,      69.182739, -2.797782427616248E+00,  1.578257803659582E+00, -1.022822590442202E+00, -6.122417130305732E-03, -6.493099943342742E-03,  1.677303275304681E-03,
2467575.500000000, A.D. 2043-Nov-22 00:00:00.0000,      69.182839, -2.828123411954104E+00,  1.545641477855822E+00, -1.014337611050829E+00, -6.013905058961046E-03, -6.553152533298313E-03,  1.716589314424985E-03,
2467580.500000000, A.D. 2043-Nov-27 00:00:00.0000,      69.182950, -2.857920782978841E+00,  1.512729046400368E+00, -1.005657687795509E+00, -5.904975830993830E-03, -6.611544280664973E-03,  1.755281058613384E-03,
2467585.500000000, A.D. 2043-Dec-02 00:00:00.0000,      69.183070, -2.887172514789371E+00,  1.479528782317910E+00, -9.967857884966402E-01, -5.795653298251509E-03, -6.668287668035547E-03,  1.793379987006359E-03,
2467590.500000000, A.D. 2043-Dec-07 00:00:00.0000,      69.183197, -2.915876699240384E+00,  1.446048896121276E+00, -9.877248733231431E-01, -5.685960713388650E-03, -6.723395215491277E-03,  1.830887679932800E-03,
2467595.500000000, A.D. 2043-Dec-12 00:00:00.0000,      69.183329, -2.944031542979206E+00,  1.412297535654480E+00, -9.784778943031609E-01, -5.575920742991254E-03, -6.776879468520540E-03,  1.867805812291243E-03,
2467600.500000000, A.D. 2043-Dec-17 00:00:00.0000,      69.183465, -2.971635364548148E+00,  1.378282785994459E+00, -9.690477948672129E-01, -5.465555480641639E-03, -6.828752986623365E-03,  1.904136147194092E-03,
2467605.500000000, A.D. 2043-Dec-22 00:00:00.0000,      69.183605, -2.998686591552237E+00,  1.344012669408125E+00, -9.594375094226221E-01, -5.354886460038328E-03, -6.879028332564174E-03,  1.939880529787288E-03,
2467610.500000000, A.D. 2043-Dec-27 00:00:00.0000,      69.183750, -3.025183757892738E+00,  1.309495145361885E+00, -9.496499629585429E-01, -5.243934668171836E-03, -6.927718062097768E-03,  1.975040881194707E-03,
2467615.500000000, A.D. 2044-Jan-01 00:00:00.0000,      69.183897, -3.051125501066318E+00,  1.274738110581623E+00, -9.396880706807998E-01, -5.132720558357453E-03, -6.974834714066811E-03,  2.009619192681972E-03,
2467620.500000000, A.D. 2044-Jan-06 00:00:00.0000,      69.184046, -3.076510559528512E+00,  1.239749399160931E+00, -9.295547376749680E-01, -5.021264062912017E-03, -7.020390801041267E-03,  2.043617520207268E-03,
2467625.500000000, A.D. 2044-Jan-11 00:00:00.0000,      69.184192, -3.101337770119910E+00,  1.204536782714406E+00, -9.192528585958186E-01, -4.909584605613594E-03, -7.064398800664637E-03,  2.077037979297470E-03,
2467630.500000000, A.D. 2044-Jan-16 00:00:00.0000,      69.184336, -3.125606065554572E+00,  1.169107970572602E+00, -9.087853173819276E-01, -4.797701114148597E-03, -7.106871147610656E-03,  2.109882740085103E-03,
2467635.500000000, A.D. 2044-Jan-21 00:00:00.0000,      69.184477, -3.149314471970690E+00,  1.133470610016049E+00, -8.981549869948255E-01, -4.685632032550593E-03, -7.147820225978620E-03,  2.142154022459265E-03,
2467640.500000000, A.D. 2044-Jan-26 00:00:00.0000,      69.184616, -3.172462106543234E+00,  1.097632286546360E+00, -8.873647291820242E-01, -4.573395333542370E-03, -7.187258362062928E-03,  2.173854091371101E-03,
2467645.500000000, A.D. 2044-Jan-31 00:00:00.0000,      69.184752, -3.195048175157925E+00,  1.061600524192541E+00, -8.764173942630460E-01, -4.461008530717402E-03, -7.225197817502123E-03,  2.204985252332049E-03,
2467650.500000000, A.D. 2044-Feb-05 00:00:00.0000,      69.184881, -3.217071970145669E+00,  1.025382785850589E+00, -8.653158209374534E-01, -4.348488690539217E-03, -7.261650782817125E-03,  2.235549847114609E-03,
2467655.500000000, A.D. 2044-Feb-10 00:00:00.0000,      69.185002, -3.238532868076510E+00,  9.889864736544197E-01, -8.540628361138767E-01, -4.235852444153690E-03, -7.296629371338139E-03,  2.265550249652099E-03,
2467660.500000000, A.D. 2044-Feb-15 00:00:00.0000,      69.185114, -3.259430327612181E+00,  9.524189293762245E-01, -8.426612547590605E-01, -4.123115999011918E-03, -7.330145613507063E-03,  2.294988862129562E-03,
2467665.500000000, A.D. 2044-Feb-20 00:00:00.0000,      69.185218, -3.279763887416289E+00,  9.156874348543877E-01, -8.311138797659908E-01, -4.010295150299981E-03, -7.362211451544871E-03,  2.323868111259720E-03,
2467670.500000000, A.D. 2044-Feb-25 00:00:00.0000,      69.185314, -3.299533164121150E+00,  8.787992124471916E-01, -8.194235018401932E-01, -3.897405292170066E-03, -7.392838734470381E-03,  2.352190444738213E-03,
2467675.500000000, A.D. 2044-Mar-01 00:00:00.0000,      69.185401, -3.318737850350267E+00,  8.417614255105650E-01, -8.075928994033147E-01, -3.784461428767224E-03, -7.422039213460806E-03,  2.379958327872866E-03,
2467680.500000000, A.D. 2044-Mar-06 00:00:00.0000,      69.185477, -3.337377712795427E+00,  8.045811788981860E-01, -7.956248385131345E-01, -3.671478185041470E-03, -7.449824537551102E-03,  2.407174240384164E-03,
2467685.500000000, A.D. 2044-Mar-11 00:00:00.0000,      69.185540, -3.355452590347288E+00,  7.672655194822382E-01, -7.835220727991514E-01, -3.558469817339515E-03, -7.476206249672042E-03,  2.433840673371256E-03,
2467690.500000000, A.D. 2044-Mar-16 00:00:00.0000,      69.185591, -3.372962392278441E+00,  7.298214366930800E-01, -7.712873434129716E-01, -3.445450223811493E-03, -7.501195783055735E-03,  2.459960126418594E-03,
2467695.500000000, A.D. 2044-Mar-21 00:00:00.0000,      69.185630, -3.389907096478251E+00,  6.922558630760401E-01, -7.589233789929324E-01, -3.332432954741082E-03, -7.524804457954145E-03,  2.485535104781965E-03,
